STARLINK-36524          
1 67452U 26008H   26024.50001156 -.01136725  38841-3 -30183-2 0  9993
2 67452  43.0012 102.2139 0001271 284.7483 281.5685 15.93726621  2695
STARLINK-36518          
1 67453U 26008J   26024.50001156 -.01551576  71174-3 -34150-2 0  9993
2 67453  42.9998 101.9236 0001381 282.6175  37.3518 15.97250457  2716
STARLINK-36517          
1 67454U 26008K   26024.50001156 -.01148200  39595-3 -30348-2 0  9996
2 67454  43.0010 102.2056 0001279 277.3879 292.1272 15.93814614  2711
STARLINK-36516          
1 67455U 26008L   26024.50001156 -.01191061  42419-3 -31171-2 0  9994
2 67455  43.0014 102.1900 0001327 277.4491 298.4785 15.94007682  2693
STARLINK-36493          
1 67456U 26008M   26024.50001156 -.01156572  40144-3 -30491-2 0  9990
2 67456  43.0013 102.2019 0001246 279.6966 291.4511 15.93864483  2695
STARLINK-36529          
1 67457U 26008N   26024.50001156 -.01169250  40980-3 -30713-2 0  9993
2 67457  43.0013 102.1954 0001319 279.5438 294.0671 15.93935038  2698
STARLINK-36528          
1 67458U 26008P   26024.50001156 -.01214841  44014-3 -31671-2 0  9997
2 67458  43.0013 102.1833 0001201 279.7819 298.7247 15.94083927  2715
STARLINK-36546          
1 67459U 26008Q   26024.50001156 -.01254808  46744-3 -32550-2 0  9994
2 67459  43.0011 102.1751 0001323 280.7136 301.0461 15.94183696  2699
STARLINK-36523          
1 67460U 26008R   26024.50001156 -.01290623  49258-3 -33331-2 0  9992
2 67460  43.0013 102.1677 0001277 283.7575 300.8630 15.94272747  2712
STARLINK-36522          
1 67461U 26008S   26024.50001156 -.01317959  51224-3 -33901-2 0  9994
2 67461  43.0014 102.1612 0001323 283.0059 304.2069 15.94351400  2690
STARLINK-36504          
1 67462U 26008T   26024.50001156 -.01355188  53952-3 -34706-2 0  9995
2 67462  43.0013 102.1539 0001390 277.7389 312.3737 15.94439640  2716
STARLINK-36505          
1 67463U 26008U   26024.50001156 -.01398094  57172-3 -35654-2 0  9990
2 67463  43.0017 102.1465 0001284 280.4858 312.6594 15.94525505  2690
