CCSDS_OMM_VERS = 2.0
CREATION_DATE  = 
ORIGINATOR     = 

OBJECT_NAME    = STARLINK-36524
OBJECT_ID      = 2026-008H
CENTER_NAME    = EARTH
REF_FRAME      = TEME
TIME_SYSTEM    = UTC
MEAN_ELEMENT_THEORY = SGP/SGP4

EPOCH          = 2026-01-24T12:00:00.998784
MEAN_MOTION    = 15.93726621
ECCENTRICITY   = .0001271
INCLINATION    = 43.0012
RA_OF_ASC_NODE = 102.2139
ARG_OF_PERICENTER = 284.7483
MEAN_ANOMALY   = 281.5685

EPHEMERIS_TYPE = 0
CLASSIFICATION_TYPE = U
NORAD_CAT_ID   = 67452
ELEMENT_SET_NO = 999
REV_AT_EPOCH   = 269
BSTAR          = -.30183E-2
MEAN_MOTION_DOT = -.1136725E-1
MEAN_MOTION_DDOT = .38841E-3

CCSDS_OMM_VERS = 2.0
CREATION_DATE  = 
ORIGINATOR     = 

OBJECT_NAME    = STARLINK-36518
OBJECT_ID      = 2026-008J
CENTER_NAME    = EARTH
REF_FRAME      = TEME
TIME_SYSTEM    = UTC
MEAN_ELEMENT_THEORY = SGP/SGP4

EPOCH          = 2026-01-24T12:00:00.998784
MEAN_MOTION    = 15.97250457
ECCENTRICITY   = .0001381
INCLINATION    = 42.9998
RA_OF_ASC_NODE = 101.9236
ARG_OF_PERICENTER = 282.6175
MEAN_ANOMALY   = 37.3518

EPHEMERIS_TYPE = 0
CLASSIFICATION_TYPE = U
NORAD_CAT_ID   = 67453
ELEMENT_SET_NO = 999
REV_AT_EPOCH   = 271
BSTAR          = -.3415E-2
MEAN_MOTION_DOT = -.1551576E-1
MEAN_MOTION_DDOT = .71174E-3

CCSDS_OMM_VERS = 2.0
CREATION_DATE  = 
ORIGINATOR     = 

OBJECT_NAME    = STARLINK-36517
OBJECT_ID      = 2026-008K
CENTER_NAME    = EARTH
REF_FRAME      = TEME
TIME_SYSTEM    = UTC
MEAN_ELEMENT_THEORY = SGP/SGP4

EPOCH          = 2026-01-24T12:00:00.998784
MEAN_MOTION    = 15.93814614
ECCENTRICITY   = .0001279
INCLINATION    = 43.0010
RA_OF_ASC_NODE = 102.2056
ARG_OF_PERICENTER = 277.3879
MEAN_ANOMALY   = 292.1272

EPHEMERIS_TYPE = 0
CLASSIFICATION_TYPE = U
NORAD_CAT_ID   = 67454
ELEMENT_SET_NO = 999
REV_AT_EPOCH   = 271
BSTAR          = -.30348E-2
MEAN_MOTION_DOT = -.11482E-1
MEAN_MOTION_DDOT = .39595E-3

CCSDS_OMM_VERS = 2.0
CREATION_DATE  = 
ORIGINATOR     = 

OBJECT_NAME    = STARLINK-36516
OBJECT_ID      = 2026-008L
CENTER_NAME    = EARTH
REF_FRAME      = TEME
TIME_SYSTEM    = UTC
MEAN_ELEMENT_THEORY = SGP/SGP4

EPOCH          = 2026-01-24T12:00:00.998784
MEAN_MOTION    = 15.94007682
ECCENTRICITY   = .0001327
INCLINATION    = 43.0014
RA_OF_ASC_NODE = 102.1900
ARG_OF_PERICENTER = 277.4491
MEAN_ANOMALY   = 298.4785

EPHEMERIS_TYPE = 0
CLASSIFICATION_TYPE = U
NORAD_CAT_ID   = 67455
ELEMENT_SET_NO = 999
REV_AT_EPOCH   = 269
BSTAR          = -.31171E-2
MEAN_MOTION_DOT = -.1191061E-1
MEAN_MOTION_DDOT = .42419E-3

CCSDS_OMM_VERS = 2.0
CREATION_DATE  = 
ORIGINATOR     = 

OBJECT_NAME    = STARLINK-36493
OBJECT_ID      = 2026-008M
CENTER_NAME    = EARTH
REF_FRAME      = TEME
TIME_SYSTEM    = UTC
MEAN_ELEMENT_THEORY = SGP/SGP4

EPOCH          = 2026-01-24T12:00:00.998784
MEAN_MOTION    = 15.93864483
ECCENTRICITY   = .0001246
INCLINATION    = 43.0013
RA_OF_ASC_NODE = 102.2019
ARG_OF_PERICENTER = 279.6966
MEAN_ANOMALY   = 291.4511

EPHEMERIS_TYPE = 0
CLASSIFICATION_TYPE = U
NORAD_CAT_ID   = 67456
ELEMENT_SET_NO = 999
REV_AT_EPOCH   = 269
BSTAR          = -.30491E-2
MEAN_MOTION_DOT = -.1156572E-1
MEAN_MOTION_DDOT = .40144E-3

CCSDS_OMM_VERS = 2.0
CREATION_DATE  = 
ORIGINATOR     = 

OBJECT_NAME    = STARLINK-36529
OBJECT_ID      = 2026-008N
CENTER_NAME    = EARTH
REF_FRAME      = TEME
TIME_SYSTEM    = UTC
MEAN_ELEMENT_THEORY = SGP/SGP4

EPOCH          = 2026-01-24T12:00:00.998784
MEAN_MOTION    = 15.93935038
ECCENTRICITY   = .0001319
INCLINATION    = 43.0013
RA_OF_ASC_NODE = 102.1954
ARG_OF_PERICENTER = 279.5438
MEAN_ANOMALY   = 294.0671

EPHEMERIS_TYPE = 0
CLASSIFICATION_TYPE = U
NORAD_CAT_ID   = 67457
ELEMENT_SET_NO = 999
REV_AT_EPOCH   = 269
BSTAR          = -.30713E-2
MEAN_MOTION_DOT = -.116925E-1
MEAN_MOTION_DDOT = .4098E-3

CCSDS_OMM_VERS = 2.0
CREATION_DATE  = 
ORIGINATOR     = 

OBJECT_NAME    = STARLINK-36528
OBJECT_ID      = 2026-008P
CENTER_NAME    = EARTH
REF_FRAME      = TEME
TIME_SYSTEM    = UTC
MEAN_ELEMENT_THEORY = SGP/SGP4

EPOCH          = 2026-01-24T12:00:00.998784
MEAN_MOTION    = 15.94083927
ECCENTRICITY   = .0001201
INCLINATION    = 43.0013
RA_OF_ASC_NODE = 102.1833
ARG_OF_PERICENTER = 279.7819
MEAN_ANOMALY   = 298.7247

EPHEMERIS_TYPE = 0
CLASSIFICATION_TYPE = U
NORAD_CAT_ID   = 67458
ELEMENT_SET_NO = 999
REV_AT_EPOCH   = 271
BSTAR          = -.31671E-2
MEAN_MOTION_DOT = -.1214841E-1
MEAN_MOTION_DDOT = .44014E-3

CCSDS_OMM_VERS = 2.0
CREATION_DATE  = 
ORIGINATOR     = 

OBJECT_NAME    = STARLINK-36546
OBJECT_ID      = 2026-008Q
CENTER_NAME    = EARTH
REF_FRAME      = TEME
TIME_SYSTEM    = UTC
MEAN_ELEMENT_THEORY = SGP/SGP4

EPOCH          = 2026-01-24T12:00:00.998784
MEAN_MOTION    = 15.94183696
ECCENTRICITY   = .0001323
INCLINATION    = 43.0011
RA_OF_ASC_NODE = 102.1751
ARG_OF_PERICENTER = 280.7136
MEAN_ANOMALY   = 301.0461

EPHEMERIS_TYPE = 0
CLASSIFICATION_TYPE = U
NORAD_CAT_ID   = 67459
ELEMENT_SET_NO = 999
REV_AT_EPOCH   = 269
BSTAR          = -.3255E-2
MEAN_MOTION_DOT = -.1254808E-1
MEAN_MOTION_DDOT = .46744E-3

CCSDS_OMM_VERS = 2.0
CREATION_DATE  = 
ORIGINATOR     = 

OBJECT_NAME    = STARLINK-36523
OBJECT_ID      = 2026-008R
CENTER_NAME    = EARTH
REF_FRAME      = TEME
TIME_SYSTEM    = UTC
MEAN_ELEMENT_THEORY = SGP/SGP4

EPOCH          = 2026-01-24T12:00:00.998784
MEAN_MOTION    = 15.94272747
ECCENTRICITY   = .0001277
INCLINATION    = 43.0013
RA_OF_ASC_NODE = 102.1677
ARG_OF_PERICENTER = 283.7575
MEAN_ANOMALY   = 300.8630

EPHEMERIS_TYPE = 0
CLASSIFICATION_TYPE = U
NORAD_CAT_ID   = 67460
ELEMENT_SET_NO = 999
REV_AT_EPOCH   = 271
BSTAR          = -.33331E-2
MEAN_MOTION_DOT = -.1290623E-1
MEAN_MOTION_DDOT = .49258E-3

CCSDS_OMM_VERS = 2.0
CREATION_DATE  = 
ORIGINATOR     = 

OBJECT_NAME    = STARLINK-36522
OBJECT_ID      = 2026-008S
CENTER_NAME    = EARTH
REF_FRAME      = TEME
TIME_SYSTEM    = UTC
MEAN_ELEMENT_THEORY = SGP/SGP4

EPOCH          = 2026-01-24T12:00:00.998784
MEAN_MOTION    = 15.94351400
ECCENTRICITY   = .0001323
INCLINATION    = 43.0014
RA_OF_ASC_NODE = 102.1612
ARG_OF_PERICENTER = 283.0059
MEAN_ANOMALY   = 304.2069

EPHEMERIS_TYPE = 0
CLASSIFICATION_TYPE = U
NORAD_CAT_ID   = 67461
ELEMENT_SET_NO = 999
REV_AT_EPOCH   = 269
BSTAR          = -.33901E-2
MEAN_MOTION_DOT = -.1317959E-1
MEAN_MOTION_DDOT = .51224E-3

CCSDS_OMM_VERS = 2.0
CREATION_DATE  = 
ORIGINATOR     = 

OBJECT_NAME    = STARLINK-36504
OBJECT_ID      = 2026-008T
CENTER_NAME    = EARTH
REF_FRAME      = TEME
TIME_SYSTEM    = UTC
MEAN_ELEMENT_THEORY = SGP/SGP4

EPOCH          = 2026-01-24T12:00:00.998784
MEAN_MOTION    = 15.94439640
ECCENTRICITY   = .000139
INCLINATION    = 43.0013
RA_OF_ASC_NODE = 102.1539
ARG_OF_PERICENTER = 277.7389
MEAN_ANOMALY   = 312.3737

EPHEMERIS_TYPE = 0
CLASSIFICATION_TYPE = U
NORAD_CAT_ID   = 67462
ELEMENT_SET_NO = 999
REV_AT_EPOCH   = 271
BSTAR          = -.34706E-2
MEAN_MOTION_DOT = -.1355188E-1
MEAN_MOTION_DDOT = .53952E-3

CCSDS_OMM_VERS = 2.0
CREATION_DATE  = 
ORIGINATOR     = 

OBJECT_NAME    = STARLINK-36505
OBJECT_ID      = 2026-008U
CENTER_NAME    = EARTH
REF_FRAME      = TEME
TIME_SYSTEM    = UTC
MEAN_ELEMENT_THEORY = SGP/SGP4

EPOCH          = 2026-01-24T12:00:00.998784
MEAN_MOTION    = 15.94525505
ECCENTRICITY   = .0001284
INCLINATION    = 43.0017
RA_OF_ASC_NODE = 102.1465
ARG_OF_PERICENTER = 280.4858
MEAN_ANOMALY   = 312.6594

EPHEMERIS_TYPE = 0
CLASSIFICATION_TYPE = U
NORAD_CAT_ID   = 67463
ELEMENT_SET_NO = 999
REV_AT_EPOCH   = 269
BSTAR          = -.35654E-2
MEAN_MOTION_DOT = -.1398094E-1
MEAN_MOTION_DDOT = .57172E-3

